{"type": "FeatureCollection", "features": [ {"type": "Feature", "properties": {"norad_id": 33492, "name": "GOSAT (IBUKI)", "group": "resource", "lat": 45.51210556436777, "lon": 85.68411497408465, "alt_km": 664.494047878411, "timestamp": "2025-12-11T08:58:26.770888+00:00", "meta": {"OBJECT_NAME": "GOSAT (IBUKI)", "OBJECT_ID": "2009-002A", "EPOCH": "2025-12-11T05:29:31.382016", "MEAN_MOTION": 14.67550218, "ECCENTRICITY": 9.39e-05, "INCLINATION": 98.0768, "RA_OF_ASC_NODE": 93.8531, "ARG_OF_PERICENTER": 90.3208, "MEAN_ANOMALY": 269.8105, "EPHEMERIS_TYPE": 0, "CLASSIFICATION_TYPE": "U", "NORAD_CAT_ID": 33492, "ELEMENT_SET_NO": 999, "REV_AT_EPOCH": 90389, "BSTAR": 0.00025492, "MEAN_MOTION_DOT": 1.398e-05, "MEAN_MOTION_DDOT": 0}, "tle": {"line1": "1 33492U 09002A   25345.22883544  .00001398  00000+0  25492-3 0  9992", "line2": "2 33492  98.0768  93.8531 0000939  90.3208 269.8105 14.67550218903892"}}, "geometry": {"type": "Point", "coordinates": [85.68411497408465, 45.51210556436777]}}, {"type": "Feature", "properties": {"norad_id": 35681, "name": "DEIMOS-1", "group": "resource", "lat": 81.93868953156391, "lon": 72.87252085139093, "alt_km": 635.9335474556829, "timestamp": "2025-12-11T08:58:26.770899+00:00", "meta": {"OBJECT_NAME": "DEIMOS-1", "OBJECT_ID": "2009-041A", "EPOCH": "2025-12-11T05:19:18.972768", "MEAN_MOTION": 14.7494851, "ECCENTRICITY": 0.0002755, "INCLINATION": 97.7151, "RA_OF_ASC_NODE": 145.8956, "ARG_OF_PERICENTER": 81.8144, "MEAN_ANOMALY": 278.3378, "EPHEMERIS_TYPE": 0, "CLASSIFICATION_TYPE": "U", "NORAD_CAT_ID": 35681, "ELEMENT_SET_NO": 999, "REV_AT_EPOCH": 87917, "BSTAR": 0.00017264, "MEAN_MOTION_DOT": 1.113e-05, "MEAN_MOTION_DDOT": 0}, "tle": {"line1": "1 35681U 09041A   25345.22174737  .00001113  00000+0  17264-3 0  9997", "line2": "2 35681  97.7151 145.8956 0002755  81.8144 278.3378 14.74948510879171"}}, "geometry": {"type": "Point", "coordinates": [72.87252085139093, 81.93868953156391]}}, {"type": "Feature", "properties": {"norad_id": 35682, "name": "DUBAISAT-1", "group": "resource", "lat": 23.973891514973207, "lon": 112.4978602647009, "alt_km": 643.000828935039, "timestamp": "2025-12-11T08:58:26.770911+00:00", "meta": {"OBJECT_NAME": "DUBAISAT-1", "OBJECT_ID": "2009-041B", "EPOCH": "2025-12-11T02:21:01.918368", "MEAN_MOTION": 14.74596728, "ECCENTRICITY": 0.000965, "INCLINATION": 97.9788, "RA_OF_ASC_NODE": 115.8019, "ARG_OF_PERICENTER": 320.3232, "MEAN_ANOMALY": 39.7269, "EPHEMERIS_TYPE": 0, "CLASSIFICATION_TYPE": "U", "NORAD_CAT_ID": 35682, "ELEMENT_SET_NO": 999, "REV_AT_EPOCH": 87737, "BSTAR": 0.0003371, "MEAN_MOTION_DOT": 2.198e-05, "MEAN_MOTION_DDOT": 0}, "tle": {"line1": "1 35682U 09041B   25345.09793887  .00002198  00000+0  33710-3 0  9994", "line2": "2 35682  97.9788 115.8019 0009650 320.3232  39.7269 14.74596728877375"}}, "geometry": {"type": "Point", "coordinates": [112.4978602647009, 23.973891514973207]}}, {"type": "Feature", "properties": {"norad_id": 35931, "name": "OCEANSAT-2", "group": "resource", "lat": -29.7373153584395, "lon": 161.37514406455523, "alt_km": 912.1741473940265, "timestamp": "2025-12-11T08:58:26.770922+00:00", "meta": {"OBJECT_NAME": "OCEANSAT-2", "OBJECT_ID": "2009-051A", "EPOCH": "2025-12-11T04:32:36.612096", "MEAN_MOTION": 13.9962497, "ECCENTRICITY": 0.0016265, "INCLINATION": 98.2224, "RA_OF_ASC_NODE": 345.9472, "ARG_OF_PERICENTER": 49.1237, "MEAN_ANOMALY": 311.1336, "EPHEMERIS_TYPE": 0, "CLASSIFICATION_TYPE": "U", "NORAD_CAT_ID": 35931, "ELEMENT_SET_NO": 999, "REV_AT_EPOCH": 85303, "BSTAR": -7.7711e-05, "MEAN_MOTION_DOT": -1.51e-06, "MEAN_MOTION_DDOT": 0}, "tle": {"line1": "1 35931U 09051A   25345.18931264 -.00000151  00000+0 -77711-4 0  9994", "line2": "2 35931  98.2224 345.9472 0016265  49.1237 311.1336 13.99624970853037"}}, "geometry": {"type": "Point", "coordinates": [161.37514406455523, -29.7373153584395]}}, {"type": "Feature", "properties": {"norad_id": 35946, "name": "WORLDVIEW-2 (WV-2)", "group": "resource", "lat": 35.20573097307912, "lon": -117.48346205955802, "alt_km": 762.8362409679421, "timestamp": "2025-12-11T08:58:26.770933+00:00", "meta": {"OBJECT_NAME": "WORLDVIEW-2 (WV-2)", "OBJECT_ID": "2009-055A", "EPOCH": "2025-12-11T04:57:54.584064", "MEAN_MOTION": 14.37651686, "ECCENTRICITY": 0.0005317, "INCLINATION": 98.4762, "RA_OF_ASC_NODE": 56.3122, "ARG_OF_PERICENTER": 70.637, "MEAN_ANOMALY": 289.5392, "EPHEMERIS_TYPE": 0, "CLASSIFICATION_TYPE": "U", "NORAD_CAT_ID": 35946, "ELEMENT_SET_NO": 999, "REV_AT_EPOCH": 84863, "BSTAR": 0.0001077, "MEAN_MOTION_DOT": 2.8e-06, "MEAN_MOTION_DDOT": 0}, "tle": {"line1": "1 35946U 09055A   25345.20688176  .00000280  00000+0  10770-3 0  9990", "line2": "2 35946  98.4762  56.3122 0005317  70.6370 289.5392 14.37651686848637"}}, "geometry": {"type": "Point", "coordinates": [-117.48346205955802, 35.20573097307912]}}, {"type": "Feature", "properties": {"norad_id": 36036, "name": "SMOS", "group": "resource", "lat": 10.12961089278459, "lon": -8.037873162074943, "alt_km": 760.8393731697333, "timestamp": "2025-12-11T08:58:26.770944+00:00", "meta": {"OBJECT_NAME": "SMOS", "OBJECT_ID": "2009-059A", "EPOCH": "2025-12-11T03:11:05.949600", "MEAN_MOTION": 14.39738982, "ECCENTRICITY": 0.0001099, "INCLINATION": 98.438, "RA_OF_ASC_NODE": 170.2049, "ARG_OF_PERICENTER": 84.7194, "MEAN_ANOMALY": 275.4119, "EPHEMERIS_TYPE": 0, "CLASSIFICATION_TYPE": "U", "NORAD_CAT_ID": 36036, "ELEMENT_SET_NO": 999, "REV_AT_EPOCH": 84639, "BSTAR": 0.00020223, "MEAN_MOTION_DOT": 5.9e-06, "MEAN_MOTION_DDOT": 0}, "tle": {"line1": "1 36036U 09059A   25345.13270775  .00000590  00000+0  20223-3 0  9997", "line2": "2 36036  98.4380 170.2049 0001099  84.7194 275.4119 14.39738982846390"}}, "geometry": {"type": "Point", "coordinates": [-8.037873162074943, 10.12961089278459]}}, {"type": "Feature", "properties": {"norad_id": 36110, "name": "YAOGAN-7", "group": "resource", "lat": 11.914728454923024, "lon": 48.842788087192076, "alt_km": 645.5488334090833, "timestamp": "2025-12-11T08:58:26.770955+00:00", "meta": {"OBJECT_NAME": "YAOGAN-7", "OBJECT_ID": "2009-069A", "EPOCH": "2025-12-11T04:57:52.284960", "MEAN_MOTION": 14.77728748, "ECCENTRICITY": 0.0023403, "INCLINATION": 98.0302, "RA_OF_ASC_NODE": 226.9694, "ARG_OF_PERICENTER": 286.5158, "MEAN_ANOMALY": 73.3481, "EPHEMERIS_TYPE": 0, "CLASSIFICATION_TYPE": "U", "NORAD_CAT_ID": 36110, "ELEMENT_SET_NO": 999, "REV_AT_EPOCH": 86186, "BSTAR": 0.00015208, "MEAN_MOTION_DOT": 1.041e-05, "MEAN_MOTION_DDOT": 0}, "tle": {"line1": "1 36110U 09069A   25345.20685515  .00001041  00000+0  15208-3 0  9990", "line2": "2 36110  98.0302 226.9694 0023403 286.5158  73.3481 14.77728748861860"}}, "geometry": {"type": "Point", "coordinates": [48.842788087192076, 11.914728454923024]}}, {"type": "Feature", "properties": {"norad_id": 36605, "name": "TANDEM-X", "group": "resource", "lat": -30.336353937536114, "lon": 166.3851362171796, "alt_km": 515.2435635602669, "timestamp": "2025-12-11T08:58:26.770965+00:00", "meta": {"OBJECT_NAME": "TANDEM-X", "OBJECT_ID": "2010-030A", "EPOCH": "2025-12-10T13:04:49.497312", "MEAN_MOTION": 15.19152954, "ECCENTRICITY": 0.0001855, "INCLINATION": 97.4451, "RA_OF_ASC_NODE": 349.9572, "ARG_OF_PERICENTER": 84.2987, "MEAN_ANOMALY": 275.8459, "EPHEMERIS_TYPE": 0, "CLASSIFICATION_TYPE": "U", "NORAD_CAT_ID": 36605, "ELEMENT_SET_NO": 999, "REV_AT_EPOCH": 85800, "BSTAR": 0.00014449, "MEAN_MOTION_DOT": 2.969e-05, "MEAN_MOTION_DDOT": 0}, "tle": {"line1": "1 36605U 10030A   25344.54501733  .00002969  00000+0  14449-3 0  9990", "line2": "2 36605  97.4451 349.9572 0001855  84.2987 275.8459 15.19152954858001"}}, "geometry": {"type": "Point", "coordinates": [166.3851362171796, -30.336353937536114]}}, {"type": "Feature", "properties": {"norad_id": 36795, "name": "CARTOSAT-2B", "group": "resource", "lat": 82.18071147426862, "lon": -60.51983403093964, "alt_km": 616.7659872681106, "timestamp": "2025-12-11T08:58:26.770975+00:00", "meta": {"OBJECT_NAME": "CARTOSAT-2B", "OBJECT_ID": "2010-035A", "EPOCH": "2025-12-11T03:41:40.403040", "MEAN_MOTION": 14.78784278, "ECCENTRICITY": 0.0012907, "INCLINATION": 97.7851, "RA_OF_ASC_NODE": 34.2356, "ARG_OF_PERICENTER": 81.9983, "MEAN_ANOMALY": 278.2692, "EPHEMERIS_TYPE": 0, "CLASSIFICATION_TYPE": "U", "NORAD_CAT_ID": 36795, "ELEMENT_SET_NO": 999, "REV_AT_EPOCH": 83206, "BSTAR": 0.00010375, "MEAN_MOTION_DOT": 7.13e-06, "MEAN_MOTION_DDOT": 0}, "tle": {"line1": "1 36795U 10035A   25345.15393985  .00000713  00000+0  10375-3 0  9990", "line2": "2 36795  97.7851  34.2356 0012907  81.9983 278.2692 14.78784278832060"}}, "geometry": {"type": "Point", "coordinates": [-60.51983403093964, 82.18071147426862]}}, {"type": "Feature", "properties": {"norad_id": 36834, "name": "YAOGAN-10", "group": "resource", "lat": 37.52959344978221, "lon": -168.66134137394428, "alt_km": 611.6076501638654, "timestamp": "2025-12-11T08:58:26.770986+00:00", "meta": {"OBJECT_NAME": "YAOGAN-10", "OBJECT_ID": "2010-038A", "EPOCH": "2025-12-11T05:22:53.080608", "MEAN_MOTION": 14.84597672, "ECCENTRICITY": 0.0001492, "INCLINATION": 97.9142, "RA_OF_ASC_NODE": 5.056, "ARG_OF_PERICENTER": 83.7094, "MEAN_ANOMALY": 338.6653, "EPHEMERIS_TYPE": 0, "CLASSIFICATION_TYPE": "U", "NORAD_CAT_ID": 36834, "ELEMENT_SET_NO": 999, "REV_AT_EPOCH": 82931, "BSTAR": 0.0004112, "MEAN_MOTION_DOT": 3.42e-05, "MEAN_MOTION_DDOT": 0}, "tle": {"line1": "1 36834U 10038A   25345.22422547  .00003420  00000+0  41120-3 0  9992", "line2": "2 36834  97.9142   5.0560 0001492  83.7094 338.6653 14.84597672829311"}}, "geometry": {"type": "Point", "coordinates": [-168.66134137394428, 37.52959344978221]}}]}